{"type": "FeatureCollection", "features": [ {"type": "Feature", "properties": {"norad_id": 67111, "name": "STARLINK-35875", "group": "last-30-days", "lat": 9.693637721867397, "lon": -115.04242570829344, "alt_km": 328.4399099667762, "timestamp": "2025-12-26T03:50:10.811116+00:00", "meta": {"OBJECT_NAME": "STARLINK-35875", "OBJECT_ID": "2025-299K", "EPOCH": "2025-12-25T20:00:01.999008", "MEAN_MOTION": 15.81603136, "ECCENTRICITY": 0.0001662, "INCLINATION": 42.9969, "RA_OF_ASC_NODE": 236.3922, "ARG_OF_PERICENTER": 260.6115, "MEAN_ANOMALY": 53.2769, "EPHEMERIS_TYPE": 0, "CLASSIFICATION_TYPE": "U", "NORAD_CAT_ID": 67111, "ELEMENT_SET_NO": 999, "REV_AT_EPOCH": 280, "BSTAR": -0.010013, "MEAN_MOTION_DOT": -0.01817423, "MEAN_MOTION_DDOT": 0}, "tle": {"line1": "1 67111U 25299K   25359.83335647 -.01817423  00000+0 -10013-1 0  9999", "line2": "2 67111  42.9969 236.3922 0001662 260.6115  53.2769 15.81603136  2806"}}, "geometry": {"type": "Point", "coordinates": [-115.04242570829344, 9.693637721867397]}}, {"type": "Feature", "properties": {"norad_id": 67112, "name": "STARLINK-35906", "group": "last-30-days", "lat": 11.882158766610088, "lon": -112.56353195731383, "alt_km": 328.12048086876257, "timestamp": "2025-12-26T03:50:10.811126+00:00", "meta": {"OBJECT_NAME": "STARLINK-35906", "OBJECT_ID": "2025-299L", "EPOCH": "2025-12-25T20:00:01.999008", "MEAN_MOTION": 15.81621788, "ECCENTRICITY": 0.0001581, "INCLINATION": 42.9968, "RA_OF_ASC_NODE": 236.3838, "ARG_OF_PERICENTER": 259.6868, "MEAN_ANOMALY": 57.4581, "EPHEMERIS_TYPE": 0, "CLASSIFICATION_TYPE": "U", "NORAD_CAT_ID": 67112, "ELEMENT_SET_NO": 999, "REV_AT_EPOCH": 280, "BSTAR": -0.0099854, "MEAN_MOTION_DOT": -0.01814345, "MEAN_MOTION_DDOT": 0}, "tle": {"line1": "1 67112U 25299L   25359.83335647 -.01814345  00000+0 -99854-2 0  9991", "line2": "2 67112  42.9968 236.3838 0001581 259.6868  57.4581 15.81621788  2806"}}, "geometry": {"type": "Point", "coordinates": [-112.56353195731383, 11.882158766610088]}}, {"type": "Feature", "properties": {"norad_id": 67113, "name": "STARLINK-35789", "group": "last-30-days", "lat": 12.950792680825653, "lon": -111.33015346096872, "alt_km": 327.96522426526917, "timestamp": "2025-12-26T03:50:10.811136+00:00", "meta": {"OBJECT_NAME": "STARLINK-35789", "OBJECT_ID": "2025-299M", "EPOCH": "2025-12-25T20:00:01.999008", "MEAN_MOTION": 15.81630472, "ECCENTRICITY": 0.0001649, "INCLINATION": 42.9967, "RA_OF_ASC_NODE": 236.3795, "ARG_OF_PERICENTER": 260.4834, "MEAN_ANOMALY": 58.2622, "EPHEMERIS_TYPE": 0, "CLASSIFICATION_TYPE": "U", "NORAD_CAT_ID": 67113, "ELEMENT_SET_NO": 999, "REV_AT_EPOCH": 280, "BSTAR": -0.0099691, "MEAN_MOTION_DOT": -0.01812458, "MEAN_MOTION_DDOT": 0}, "tle": {"line1": "1 67113U 25299M   25359.83335647 -.01812458  00000+0 -99691-2 0  9994", "line2": "2 67113  42.9967 236.3795 0001649 260.4834  58.2622 15.81630472  2801"}}, "geometry": {"type": "Point", "coordinates": [-111.33015346096872, 12.950792680825653]}}, {"type": "Feature", "properties": {"norad_id": 67114, "name": "STARLINK-36180", "group": "last-30-days", "lat": 14.156914850181087, "lon": -109.91642420752252, "alt_km": 327.8329185902012, "timestamp": "2025-12-26T03:50:10.811145+00:00", "meta": {"OBJECT_NAME": "STARLINK-36180", "OBJECT_ID": "2025-299N", "EPOCH": "2025-12-25T20:00:01.999008", "MEAN_MOTION": 15.81631591, "ECCENTRICITY": 0.0001547, "INCLINATION": 42.9969, "RA_OF_ASC_NODE": 236.3752, "ARG_OF_PERICENTER": 257.6465, "MEAN_ANOMALY": 62.9285, "EPHEMERIS_TYPE": 0, "CLASSIFICATION_TYPE": "U", "NORAD_CAT_ID": 67114, "ELEMENT_SET_NO": 999, "REV_AT_EPOCH": 291, "BSTAR": -0.0099445, "MEAN_MOTION_DOT": -0.01808517, "MEAN_MOTION_DDOT": 0}, "tle": {"line1": "1 67114U 25299N   25359.83335647 -.01808517  00000+0 -99445-2 0  9993", "line2": "2 67114  42.9969 236.3752 0001547 257.6465  62.9285 15.81631591  2914"}}, "geometry": {"type": "Point", "coordinates": [-109.91642420752252, 14.156914850181087]}}, {"type": "Feature", "properties": {"norad_id": 67115, "name": "STARLINK-35892", "group": "last-30-days", "lat": 15.227473382839234, "lon": -108.6407018623871, "alt_km": 327.67707680114745, "timestamp": "2025-12-26T03:50:10.811162+00:00", "meta": {"OBJECT_NAME": "STARLINK-35892", "OBJECT_ID": "2025-299P", "EPOCH": "2025-12-25T20:00:01.999008", "MEAN_MOTION": 15.81649457, "ECCENTRICITY": 0.0001616, "INCLINATION": 42.9968, "RA_OF_ASC_NODE": 236.3711, "ARG_OF_PERICENTER": 259.058, "MEAN_ANOMALY": 63.138, "EPHEMERIS_TYPE": 0, "CLASSIFICATION_TYPE": "U", "NORAD_CAT_ID": 67115, "ELEMENT_SET_NO": 999, "REV_AT_EPOCH": 280, "BSTAR": -0.01003, "MEAN_MOTION_DOT": -0.01823593, "MEAN_MOTION_DDOT": 0}, "tle": {"line1": "1 67115U 25299P   25359.83335647 -.01823593  00000+0 -10030-1 0  9997", "line2": "2 67115  42.9968 236.3711 0001616 259.0580  63.1380 15.81649457  2807"}}, "geometry": {"type": "Point", "coordinates": [-108.6407018623871, 15.227473382839234]}}, {"type": "Feature", "properties": {"norad_id": 67116, "name": "STARLINK-35738", "group": "last-30-days", "lat": 16.448123018051522, "lon": -107.15924523838355, "alt_km": 327.4873319011158, "timestamp": "2025-12-26T03:50:10.811173+00:00", "meta": {"OBJECT_NAME": "STARLINK-35738", "OBJECT_ID": "2025-299Q", "EPOCH": "2025-12-25T20:00:01.999008", "MEAN_MOTION": 15.81648525, "ECCENTRICITY": 0.0001715, "INCLINATION": 42.9969, "RA_OF_ASC_NODE": 236.3664, "ARG_OF_PERICENTER": 261.7539, "MEAN_ANOMALY": 62.3174, "EPHEMERIS_TYPE": 0, "CLASSIFICATION_TYPE": "U", "NORAD_CAT_ID": 67116, "ELEMENT_SET_NO": 999, "REV_AT_EPOCH": 280, "BSTAR": -0.0099883, "MEAN_MOTION_DOT": -0.0181693, "MEAN_MOTION_DDOT": 0}, "tle": {"line1": "1 67116U 25299Q   25359.83335647 -.01816930  00000+0 -99883-2 0  9999", "line2": "2 67116  42.9969 236.3664 0001715 261.7539  62.3174 15.81648525  2807"}}, "geometry": {"type": "Point", "coordinates": [-107.15924523838355, 16.448123018051522]}}, {"type": "Feature", "properties": {"norad_id": 67117, "name": "STARLINK-35674", "group": "last-30-days", "lat": 17.5608861019504, "lon": -105.78102744621891, "alt_km": 327.3353027181565, "timestamp": "2025-12-26T03:50:10.811204+00:00", "meta": {"OBJECT_NAME": "STARLINK-35674", "OBJECT_ID": "2025-299R", "EPOCH": "2025-12-25T20:00:01.999008", "MEAN_MOTION": 15.81656432, "ECCENTRICITY": 0.0001666, "INCLINATION": 42.997, "RA_OF_ASC_NODE": 236.362, "ARG_OF_PERICENTER": 260.7079, "MEAN_ANOMALY": 65.0831, "EPHEMERIS_TYPE": 0, "CLASSIFICATION_TYPE": "U", "NORAD_CAT_ID": 67117, "ELEMENT_SET_NO": 999, "REV_AT_EPOCH": 270, "BSTAR": -0.0099985, "MEAN_MOTION_DOT": -0.01819117, "MEAN_MOTION_DDOT": 0}, "tle": {"line1": "1 67117U 25299R   25359.83335647 -.01819117  00000+0 -99985-2 0  9993", "line2": "2 67117  42.9970 236.3620 0001666 260.7079  65.0831 15.81656432  2700"}}, "geometry": {"type": "Point", "coordinates": [-105.78102744621891, 17.5608861019504]}}, {"type": "Feature", "properties": {"norad_id": 67118, "name": "STARLINK-35701", "group": "last-30-days", "lat": 18.68977126788023, "lon": -104.35237727191506, "alt_km": 327.02249514080177, "timestamp": "2025-12-26T03:50:10.811215+00:00", "meta": {"OBJECT_NAME": "STARLINK-35701", "OBJECT_ID": "2025-299S", "EPOCH": "2025-12-25T20:00:01.999008", "MEAN_MOTION": 15.81663489, "ECCENTRICITY": 0.0001704, "INCLINATION": 42.9969, "RA_OF_ASC_NODE": 236.3577, "ARG_OF_PERICENTER": 268.4113, "MEAN_ANOMALY": 59.1398, "EPHEMERIS_TYPE": 0, "CLASSIFICATION_TYPE": "U", "NORAD_CAT_ID": 67118, "ELEMENT_SET_NO": 999, "REV_AT_EPOCH": 286, "BSTAR": -0.01003, "MEAN_MOTION_DOT": -0.01824624, "MEAN_MOTION_DDOT": 0}, "tle": {"line1": "1 67118U 25299S   25359.83335647 -.01824624  00000+0 -10030-1 0  9996", "line2": "2 67118  42.9969 236.3577 0001704 268.4113  59.1398 15.81663489  2866"}}, "geometry": {"type": "Point", "coordinates": [-104.35237727191506, 18.68977126788023]}}, {"type": "Feature", "properties": {"norad_id": 67119, "name": "STARLINK-36179", "group": "last-30-days", "lat": 20.527000294458023, "lon": -101.95442303275188, "alt_km": 326.7343141688507, "timestamp": "2025-12-26T03:50:10.811225+00:00", "meta": {"OBJECT_NAME": "STARLINK-36179", "OBJECT_ID": "2025-299T", "EPOCH": "2025-12-25T20:00:01.999008", "MEAN_MOTION": 15.81694492, "ECCENTRICITY": 0.0001657, "INCLINATION": 42.9966, "RA_OF_ASC_NODE": 236.35, "ARG_OF_PERICENTER": 265.7019, "MEAN_ANOMALY": 64.7264, "EPHEMERIS_TYPE": 0, "CLASSIFICATION_TYPE": "U", "NORAD_CAT_ID": 67119, "ELEMENT_SET_NO": 999, "REV_AT_EPOCH": 291, "BSTAR": -0.0099788, "MEAN_MOTION_DOT": -0.01818819, "MEAN_MOTION_DDOT": 0}, "tle": {"line1": "1 67119U 25299T   25359.83335647 -.01818819  00000+0 -99788-2 0  9994", "line2": "2 67119  42.9966 236.3500 0001657 265.7019  64.7264 15.81694492  2910"}}, "geometry": {"type": "Point", "coordinates": [-101.95442303275188, 20.527000294458023]}}, {"type": "Feature", "properties": {"norad_id": 67120, "name": "STARLINK-36217", "group": "last-30-days", "lat": 19.664362168526193, "lon": -103.09243059905494, "alt_km": 326.9628639194525, "timestamp": "2025-12-26T03:50:10.811235+00:00", "meta": {"OBJECT_NAME": "STARLINK-36217", "OBJECT_ID": "2025-299U", "EPOCH": "2025-12-25T20:00:01.999008", "MEAN_MOTION": 15.81675553, "ECCENTRICITY": 0.0001709, "INCLINATION": 42.997, "RA_OF_ASC_NODE": 236.3538, "ARG_OF_PERICENTER": 263.8109, "MEAN_ANOMALY": 65.2648, "EPHEMERIS_TYPE": 0, "CLASSIFICATION_TYPE": "U", "NORAD_CAT_ID": 67120, "ELEMENT_SET_NO": 999, "REV_AT_EPOCH": 291, "BSTAR": -0.009994, "MEAN_MOTION_DOT": -0.01819866, "MEAN_MOTION_DDOT": 0}, "tle": {"line1": "1 67120U 25299U   25359.83335647 -.01819866  00000+0 -99940-2 0  9999", "line2": "2 67120  42.9970 236.3538 0001709 263.8109  65.2648 15.81675553  2914"}}, "geometry": {"type": "Point", "coordinates": [-103.09243059905494, 19.664362168526193]}}]}